{
  "type": "FeatureCollection",
  "features": [
    {
      "type": "Feature",
      "id": 101,
      "properties": {
        "landuse": "orchard",
        "row_heading": 20
      },
      "geometry": {
        "type": "Polygon",
        "coordinates": [
          [
            [
              -75.0036,
              40.6484
            ],
            [
              -75.0003,
              40.6484
            ],
            [
              -75.0003,
              40.6517
            ],
            [
              -75.0036,
              40.6517
            ],
            [
              -75.0036,
              40.6484
            ]
          ],
          [
            [
              -75.0025,
              40.6502
            ],
            [
              -75.0019,
              40.6502
            ],
            [
              -75.0019,
              40.6508
            ],
            [
              -75.0025,
              40.6508
            ],
            [
              -75.0025,
              40.6502
            ]
          ]
        ]
      }
    },
    {
      "type": "Feature",
      "id": 102,
      "properties": {
        "landuse": "vineyard",
        "row_heading": 65
      },
      "geometry": {
        "type": "Polygon",
        "coordinates": [
          [
            [
              -74.9997,
              40.65
            ],
            [
              -74.9964,
              40.65
            ],
            [
              -74.9964,
              40.6517
            ],
            [
              -74.9997,
              40.6517
            ],
            [
              -74.9997,
              40.65
            ]
          ]
        ]
      }
    },
    {
      "type": "Feature",
      "id": 103,
      "properties": {
        "landuse": "farmland",
        "crop": "corn",
        "row_heading": 10
      },
      "geometry": {
        "type": "Polygon",
        "coordinates": [
          [
            [
              -74.9997,
              40.6484
            ],
            [
              -74.9964,
              40.6484
            ],
            [
              -74.9964,
              40.6496
            ],
            [
              -74.9997,
              40.6496
            ],
            [
              -74.9997,
              40.6484
            ]
          ]
        ]
      }
    },
    {
      "type": "Feature",
      "id": 104,
      "properties": {
        "natural": "wood"
      },
      "geometry": {
        "type": "Polygon",
        "coordinates": [
          [
            [
              -75.0036,
              40.6519
            ],
            [
              -74.9964,
              40.6519
            ],
            [
              -74.9964,
              40.6526
            ],
            [
              -75.0036,
              40.6526
            ],
            [
              -75.0036,
              40.6519
            ]
          ]
        ]
      }
    }
  ]
}
