{
  "type": "FeatureCollection",
  "features": [
    {
      "type": "Feature",
      "id": 201,
      "properties": {
        "highway": "track"
      },
      "geometry": {
        "type": "LineString",
        "coordinates": [
          [
            24.906789898,
            60.2174
          ],
          [
            24.919010102,
            60.2207
          ]
        ]
      }
    },
    {
      "type": "Feature",
      "id": 202,
      "properties": {
        "natural": "water"
      },
      "geometry": {
        "type": "Polygon",
        "coordinates": [
          [
            [
              24.915649546,
              60.2194
            ],
            [
              24.916566061,
              60.2194
            ],
            [
              24.916566061,
              60.22
            ],
            [
              24.915649546,
              60.22
            ],
            [
              24.915649546,
              60.2194
            ]
          ]
        ]
      }
    },
    {
      "type": "Feature",
      "id": 203,
      "properties": {
        "building": "yes"
      },
      "geometry": {
        "type": "Polygon",
        "coordinates": [
          [
            [
              24.910608712,
              60.2179
            ],
            [
              24.911372474,
              60.2179
            ],
            [
              24.911372474,
              60.2185
            ],
            [
              24.910608712,
              60.2185
            ],
            [
              24.910608712,
              60.2179
            ]
          ]
        ]
      }
    },
    {
      "type": "Feature",
      "id": 303,
      "properties": {
        "vegetation": "clear"
      },
      "geometry": {
        "type": "Polygon",
        "coordinates": [
          [
            [
              24.909081186,
              60.2191
            ],
            [
              24.909997702,
              60.2191
            ],
            [
              24.909997702,
              60.2197
            ],
            [
              24.909081186,
              60.2197
            ],
            [
              24.909081186,
              60.2191
            ]
          ]
        ]
      }
    }
  ]
}
