{
  "type": "FeatureCollection",
  "features": [
    {
      "type": "Feature",
      "id": 101,
      "properties": {
        "landuse": "orchard",
        "row_heading": 20
      },
      "geometry": {
        "type": "Polygon",
        "coordinates": [
          [
            [
              24.907400908,
              60.2173
            ],
            [
              24.912441742,
              60.2173
            ],
            [
              24.912441742,
              60.2206
            ],
            [
              24.907400908,
              60.2206
            ],
            [
              24.907400908,
              60.2173
            ]
          ],
          [
            [
              24.909081186,
              60.2191
            ],
            [
              24.909997702,
              60.2191
            ],
            [
              24.909997702,
              60.2197
            ],
            [
              24.909081186,
              60.2197
            ],
            [
              24.909081186,
              60.2191
            ]
          ]
        ]
      }
    },
    {
      "type": "Feature",
      "id": 102,
      "properties": {
        "landuse": "vineyard",
        "row_heading": 65
      },
      "geometry": {
        "type": "Polygon",
        "coordinates": [
          [
            [
              24.913358258,
              60.2189
            ],
            [
              24.918399092,
              60.2189
            ],
            [
              24.918399092,
              60.2206
            ],
            [
              24.913358258,
              60.2206
            ],
            [
              24.913358258,
              60.2189
            ]
          ]
        ]
      }
    },
    {
      "type": "Feature",
      "id": 103,
      "properties": {
        "landuse": "farmland",
        "crop": "corn",
        "row_heading": 10
      },
      "geometry": {
        "type": "Polygon",
        "coordinates": [
          [
            [
              24.913358258,
              60.2173
            ],
            [
              24.918399092,
              60.2173
            ],
            [
              24.918399092,
              60.2185
            ],
            [
              24.913358258,
              60.2185
            ],
            [
              24.913358258,
              60.2173
            ]
          ]
        ]
      }
    }
  ]
}
